QIANFAN-89              
1 63175U 25046S   25330.21217102  .00000080  00000+0  10536-3 0  9993
2 63175  88.9753 321.7498 0016700 167.1022 193.0559 13.50979250 45171
QIANFAN-90              
1 63176U 25046T   25330.16686753  .00000008  00000+0 -69587-5 0  9993
2 63176  88.9754 321.7269 0013703 163.9826 196.1761 13.50974564 45188
QIANFAN-91              
1 66033U 25233A   25330.01192054  .00000549  00000+0  31716-3 0  9996
2 66033  88.9962  63.9845 0018851  87.8929 272.4412 14.07531654  5646
QIANFAN-92              
1 66034U 25233B   25330.01496087  .00000418  00000+0  24170-3 0  9991
2 66034  88.9967  63.9834 0017275  90.0768 270.2394 14.07043775  5643
QIANFAN-93              
1 66035U 25233C   25330.00633742  .00000174  00000+0  96933-4 0  9998
2 66035  88.9961  63.9830 0017727  89.4678 270.8536 14.06394384  5646
QIANFAN-94              
1 66036U 25233D   25330.01056882  .00000364  00000+0  21066-3 0  9999
2 66036  88.9963  63.9843 0016982  89.8203 270.4926 14.06744181  5646
QIANFAN-95              
1 66037U 25233E   25330.19407118  .00000774  00000+0  31680-3 0  9999
2 66037  88.9964  63.9372 0016372  91.5274 268.7795 14.26197253  5688
QIANFAN-96              
1 66038U 25233F   25330.16369181  .00000381  00000+0  22901-3 0  9994
2 66038  88.9964  63.9696 0018270  91.0008 269.3267 14.04698005  5663
